[{"OBJECT_NAME":"STARLINK-32710","OBJECT_ID":"2025-008T","EPOCH":"2025-08-11T04:19:57.910368","MEAN_MOTION":15.27582156,"ECCENTRICITY":0.0002162,"INCLINATION":42.9972,"RA_OF_ASC_NODE":26.4262,"ARG_OF_PERICENTER":270.4085,"MEAN_ANOMALY":89.6519,"EPHEMERIS_TYPE":0,"CLASSIFICATION_TYPE":"U","NORAD_CAT_ID":62604,"ELEMENT_SET_NO":999,"REV_AT_EPOCH":3337,"BSTAR":0.00091088,"MEAN_MOTION_DOT":0.0002489,"MEAN_MOTION_DDOT":0},{"OBJECT_NAME":"STARLINK-32742","OBJECT_ID":"2025-008U","EPOCH":"2025-08-10T22:08:53.796768","MEAN_MOTION":15.27602823,"ECCENTRICITY":0.0001532,"INCLINATION":43.003,"RA_OF_ASC_NODE":27.9291,"ARG_OF_PERICENTER":260.7684,"MEAN_ANOMALY":99.2994,"EPHEMERIS_TYPE":0,"CLASSIFICATION_TYPE":"U","NORAD_CAT_ID":62605,"ELEMENT_SET_NO":999,"REV_AT_EPOCH":3338,"BSTAR":0.00064524,"MEAN_MOTION_DOT":0.00017548,"MEAN_MOTION_DDOT":0},{"OBJECT_NAME":"STARLINK-32783","OBJECT_ID":"2025-008V","EPOCH":"2025-08-10T17:52:20.083296","MEAN_MOTION":15.27572817,"ECCENTRICITY":0.0001643,"INCLINATION":43.0008,"RA_OF_ASC_NODE":29.1802,"ARG_OF_PERICENTER":259.6558,"MEAN_ANOMALY":100.4108,"EPHEMERIS_TYPE":0,"CLASSIFICATION_TYPE":"U","NORAD_CAT_ID":62606,"ELEMENT_SET_NO":999,"REV_AT_EPOCH":3330,"BSTAR":0.00099794,"MEAN_MOTION_DOT":0.00027295,"MEAN_MOTION_DDOT":0},{"OBJECT_NAME":"STARLINK-32784","OBJECT_ID":"2025-008W","EPOCH":"2025-08-11T06:00:02.000160","MEAN_MOTION":15.27576215,"ECCENTRICITY":0.0002014,"INCLINATION":43.0032,"RA_OF_ASC_NODE":26.1678,"ARG_OF_PERICENTER":284.274,"MEAN_ANOMALY":41.714,"EPHEMERIS_TYPE":0,"CLASSIFICATION_TYPE":"U","NORAD_CAT_ID":62607,"ELEMENT_SET_NO":999,"REV_AT_EPOCH":586,"BSTAR":0.00072422,"MEAN_MOTION_DOT":0.00019718,"MEAN_MOTION_DDOT":0},{"OBJECT_NAME":"STARLINK-32806","OBJECT_ID":"2025-014A","EPOCH":"2025-08-11T03:13:42.150432","MEAN_MOTION":15.27575433,"ECCENTRICITY":1.77e-5,"INCLINATION":42.9959,"RA_OF_ASC_NODE":263.6773,"ARG_OF_PERICENTER":276.2478,"MEAN_ANOMALY":83.8354,"EPHEMERIS_TYPE":0,"CLASSIFICATION_TYPE":"U","NORAD_CAT_ID":62735,"ELEMENT_SET_NO":999,"REV_AT_EPOCH":3105,"BSTAR":0.00095572,"MEAN_MOTION_DOT":0.00026127,"MEAN_MOTION_DDOT":0},{"OBJECT_NAME":"STARLINK-32329","OBJECT_ID":"2025-014B","EPOCH":"2025-08-11T04:20:05.998272","MEAN_MOTION":15.27583965,"ECCENTRICITY":0.000236,"INCLINATION":42.9978,"RA_OF_ASC_NODE":263.1484,"ARG_OF_PERICENTER":278.5425,"MEAN_ANOMALY":81.5159,"EPHEMERIS_TYPE":0,"CLASSIFICATION_TYPE":"U","NORAD_CAT_ID":62736,"ELEMENT_SET_NO":999,"REV_AT_EPOCH":3106,"BSTAR":0.0011069,"MEAN_MOTION_DOT":0.00030328,"MEAN_MOTION_DDOT":0},{"OBJECT_NAME":"STARLINK-32774","OBJECT_ID":"2025-014C","EPOCH":"2025-08-11T04:02:45.267936","MEAN_MOTION":15.27579849,"ECCENTRICITY":0.0001591,"INCLINATION":42.9988,"RA_OF_ASC_NODE":266.5264,"ARG_OF_PERICENTER":121.4175,"MEAN_ANOMALY":238.6832,"EPHEMERIS_TYPE":0,"CLASSIFICATION_TYPE":"U","NORAD_CAT_ID":62737,"ELEMENT_SET_NO":999,"REV_AT_EPOCH":3102,"BSTAR":0.00067886,"MEAN_MOTION_DOT":0.00018465,"MEAN_MOTION_DDOT":0},{"OBJECT_NAME":"STARLINK-32802","OBJECT_ID":"2025-014D","EPOCH":"2025-08-11T03:50:29.726592","MEAN_MOTION":15.27583926,"ECCENTRICITY":9.81e-5,"INCLINATION":42.9972,"RA_OF_ASC_NODE":262.9955,"ARG_OF_PERICENTER":230.6624,"MEAN_ANOMALY":129.414,"EPHEMERIS_TYPE":0,"CLASSIFICATION_TYPE":"U","NORAD_CAT_ID":62738,"ELEMENT_SET_NO":999,"REV_AT_EPOCH":3106,"BSTAR":0.00084982,"MEAN_MOTION_DOT":0.000232,"MEAN_MOTION_DDOT":0},{"OBJECT_NAME":"STARLINK-32796","OBJECT_ID":"2025-014E","EPOCH":"2025-08-11T03:46:47.624160","MEAN_MOTION":15.27569421,"ECCENTRICITY":0.0001303,"INCLINATION":43.0012,"RA_OF_ASC_NODE":262.9811,"ARG_OF_PERICENTER":263.3214,"MEAN_ANOMALY":96.7489,"EPHEMERIS_TYPE":0,"CLASSIFICATION_TYPE":"U","NORAD_CAT_ID":62739,"ELEMENT_SET_NO":999,"REV_AT_EPOCH":3106,"BSTAR":0.00061031,"MEAN_MOTION_DOT":0.00016565,"MEAN_MOTION_DDOT":0},{"OBJECT_NAME":"STARLINK-32805","OBJECT_ID":"2025-014F","EPOCH":"2025-08-11T03:35:54.342528","MEAN_MOTION":15.2757516,"ECCENTRICITY":4.44e-5,"INCLINATION":42.9942,"RA_OF_ASC_NODE":263.7907,"ARG_OF_PERICENTER":227.6346,"MEAN_ANOMALY":132.4468,"EPHEMERIS_TYPE":0,"CLASSIFICATION_TYPE":"U","NORAD_CAT_ID":62740,"ELEMENT_SET_NO":999,"REV_AT_EPOCH":3105,"BSTAR":0.0011024,"MEAN_MOTION_DOT":0.00030193,"MEAN_MOTION_DDOT":0},{"OBJECT_NAME":"STARLINK-32770","OBJECT_ID":"2025-014G","EPOCH":"2025-08-11T04:05:17.947104","MEAN_MOTION":15.27571123,"ECCENTRICITY":0.0001382,"INCLINATION":43.0034,"RA_OF_ASC_NODE":263.0812,"ARG_OF_PERICENTER":251.8633,"MEAN_ANOMALY":108.2069,"EPHEMERIS_TYPE":0,"CLASSIFICATION_TYPE":"U","NORAD_CAT_ID":62741,"ELEMENT_SET_NO":999,"REV_AT_EPOCH":3106,"BSTAR":0.00088649,"MEAN_MOTION_DOT":0.00024206,"MEAN_MOTION_DDOT":0},{"OBJECT_NAME":"STARLINK-32775","OBJECT_ID":"2025-014H","EPOCH":"2025-08-11T02:47:48.189408","MEAN_MOTION":15.27578436,"ECCENTRICITY":8.56e-5,"INCLINATION":42.9974,"RA_OF_ASC_NODE":263.5297,"ARG_OF_PERICENTER":248.616,"MEAN_ANOMALY":111.4601,"EPHEMERIS_TYPE":0,"CLASSIFICATION_TYPE":"U","NORAD_CAT_ID":62742,"ELEMENT_SET_NO":999,"REV_AT_EPOCH":3105,"BSTAR":0.00078545,"MEAN_MOTION_DOT":0.00021414,"MEAN_MOTION_DDOT":0},{"OBJECT_NAME":"STARLINK-32800","OBJECT_ID":"2025-014J","EPOCH":"2025-08-11T03:40:03.481248","MEAN_MOTION":15.27573633,"ECCENTRICITY":5.34e-5,"INCLINATION":42.9948,"RA_OF_ASC_NODE":270.7292,"ARG_OF_PERICENTER":154.9162,"MEAN_ANOMALY":205.1716,"EPHEMERIS_TYPE":0,"CLASSIFICATION_TYPE":"U","NORAD_CAT_ID":62743,"ELEMENT_SET_NO":999,"REV_AT_EPOCH":3097,"BSTAR":0.00096325,"MEAN_MOTION_DOT":0.00026334,"MEAN_MOTION_DDOT":0},{"OBJECT_NAME":"STARLINK-32758","OBJECT_ID":"2025-014K","EPOCH":"2025-08-11T04:21:15.609888","MEAN_MOTION":15.27567925,"ECCENTRICITY":0.0002633,"INCLINATION":42.998,"RA_OF_ASC_NODE":266.6244,"ARG_OF_PERICENTER":288.1637,"MEAN_ANOMALY":71.8928,"EPHEMERIS_TYPE":0,"CLASSIFICATION_TYPE":"U","NORAD_CAT_ID":62744,"ELEMENT_SET_NO":999,"REV_AT_EPOCH":3102,"BSTAR":0.00072194,"MEAN_MOTION_DOT":0.00019651,"MEAN_MOTION_DDOT":0},{"OBJECT_NAME":"STARLINK-32746","OBJECT_ID":"2025-014L","EPOCH":"2025-08-11T03:41:14.010432","MEAN_MOTION":15.27567068,"ECCENTRICITY":2.56e-5,"INCLINATION":42.9946,"RA_OF_ASC_NODE":262.9485,"ARG_OF_PERICENTER":74.8842,"MEAN_ANOMALY":285.2037,"EPHEMERIS_TYPE":0,"CLASSIFICATION_TYPE":"U","NORAD_CAT_ID":62745,"ELEMENT_SET_NO":999,"REV_AT_EPOCH":3106,"BSTAR":0.00060823,"MEAN_MOTION_DOT":0.00016506,"MEAN_MOTION_DDOT":0},{"OBJECT_NAME":"STARLINK-32780","OBJECT_ID":"2025-014M","EPOCH":"2025-08-11T03:34:03.394560","MEAN_MOTION":15.27570244,"ECCENTRICITY":4.4e-5,"INCLINATION":42.9985,"RA_OF_ASC_NODE":263.7765,"ARG_OF_PERICENTER":281.3521,"MEAN_ANOMALY":78.7281,"EPHEMERIS_TYPE":0,"CLASSIFICATION_TYPE":"U","NORAD_CAT_ID":62746,"ELEMENT_SET_NO":999,"REV_AT_EPOCH":3105,"BSTAR":0.00077382,"MEAN_MOTION_DOT":0.00021086,"MEAN_MOTION_DDOT":0}]
