STARLINK-32710          
1 62604U 25008T   25223.18053137  .00024890  00000+0  91088-3 0  9996
2 62604  42.9972  26.4262 0002162 270.4085  89.6519 15.27582156 33378
STARLINK-32742          
1 62605U 25008U   25222.92284487  .00017548  00000+0  64524-3 0  9999
2 62605  43.0030  27.9291 0001532 260.7684  99.2994 15.27602823 33380
STARLINK-32783          
1 62606U 25008V   25222.74467689  .00027295  00000+0  99794-3 0  9994
2 62606  43.0008  29.1802 0001643 259.6558 100.4108 15.27572817 33301
STARLINK-32784          
1 62607U 25008W   25223.25002315  .00019718  00000+0  72422-3 0  9993
2 62607  43.0032  26.1678 0002014 284.2740  41.7140 15.27576215  5866
STARLINK-32806          
1 62735U 25014A   25223.13451563  .00026127  00000+0  95572-3 0  9995
2 62735  42.9959 263.6773 0000177 276.2478  83.8354 15.27575433 31050
STARLINK-32329          
1 62736U 25014B   25223.18062498  .00030328  00000+0  11069-2 0  9992
2 62736  42.9978 263.1484 0002360 278.5425  81.5159 15.27583965 31067
STARLINK-32774          
1 62737U 25014C   25223.16857949  .00018465  00000+0  67886-3 0  9991
2 62737  42.9988 266.5264 0001591 121.4175 238.6832 15.27579849 31020
STARLINK-32802          
1 62738U 25014D   25223.16006628  .00023200  00000+0  84982-3 0  9991
2 62738  42.9972 262.9955 0000981 230.6624 129.4140 15.27583926 31069
STARLINK-32796          
1 62739U 25014E   25223.15749565  .00016565  00000+0  61031-3 0  9991
2 62739  43.0012 262.9811 0001303 263.3214  96.7489 15.27569421 31061
STARLINK-32805          
1 62740U 25014F   25223.14993452  .00030193  00000+0  11024-2 0  9997
2 62740  42.9942 263.7907 0000444 227.6346 132.4468 15.27575160 31053
STARLINK-32770          
1 62741U 25014G   25223.17034661  .00024206  00000+0  88649-3 0  9995
2 62741  43.0034 263.0812 0001382 251.8633 108.2069 15.27571123 31060
STARLINK-32775          
1 62742U 25014H   25223.11652997  .00021414  00000+0  78545-3 0  9990
2 62742  42.9974 263.5297 0000856 248.6160 111.4601 15.27578436 31059
STARLINK-32800          
1 62743U 25014J   25223.15281807  .00026334  00000+0  96325-3 0  9995
2 62743  42.9948 270.7292 0000534 154.9162 205.1716 15.27573633 30972
STARLINK-32758          
1 62744U 25014K   25223.18143067  .00019651  00000+0  72194-3 0  9996
2 62744  42.9980 266.6244 0002633 288.1637  71.8928 15.27567925 31026
STARLINK-32746          
1 62745U 25014L   25223.15363438  .00016506  00000+0  60823-3 0  9992
2 62745  42.9946 262.9485 0000256  74.8842 285.2037 15.27567068 31066
STARLINK-32780          
1 62746U 25014M   25223.14865040  .00021086  00000+0  77382-3 0  9995
2 62746  42.9985 263.7765 0000440 281.3521  78.7281 15.27570244 31059
